H1 CPF 01  gfz 2021 12 24 14  8582 terrasarx 
H2 0702601  6201 31698    2021 12 24 12 59 42 2021 12 29 00 00 42   120 1 1  0 0 0
H9
10 0 59573  26622.000000  0    6452657.886  -2414125.753     49092.349
10 0 59573  26742.000000  0    6339648.740  -2561613.187   -853928.144
10 0 59573  26862.000000  0    6113762.254  -2661398.959  -1741930.551
10 0 59573  26982.000000  0    5779890.843  -2709843.201  -2599320.384
10 0 59573  27102.000000  0    5344872.971  -2704313.234  -3411070.888
10 0 59573  27222.000000  0    4817344.807  -2643258.101  -4162988.807
10 0 59573  27342.000000  0    4207559.738  -2526260.874  -4841962.083
10 0 59573  27462.000000  0    3527178.647  -2354066.970  -5436184.617
10 0 59573  27582.000000  0    2789038.042  -2128588.107  -5935352.447
10 0 59573  27702.000000  0    2006904.108  -1852883.339  -6330831.667
10 0 59573  27822.000000  0    1195214.146  -1531117.128  -6615798.417
10 0 59573  27942.000000  0     368810.062  -1168494.811  -6785345.486
10 0 59573  28062.000000  0    -457329.103   -771178.544  -6836557.374
10 0 59573  28182.000000  0   -1268352.541   -346184.201  -6768554.422
10 0 59573  28302.000000  0   -2049798.633     98739.712  -6582506.323
10 0 59573  28422.000000  0   -2787846.803    555249.708  -6281613.152
10 0 59573  28542.000000  0   -3469556.570   1014559.051  -5871056.453
10 0 59573  28662.000000  0   -4083092.863   1467602.223  -5357920.290
10 0 59573  28782.000000  0   -4617934.086   1905209.492  -4751080.608
10 0 59573  28902.000000  0   -5065058.437   2318290.534  -4061063.199
10 0 59573  29022.000000  0   -5417103.748   2698021.177  -3299870.401
10 0 59573  29142.000000  0   -5668498.363   3036029.899  -2480780.568
10 0 59573  29262.000000  0   -5815560.315   3324581.058  -1618121.116
10 0 59573  29382.000000  0   -5856560.202   3556749.983   -727018.003
10 0 59573  29502.000000  0   -5791745.314   3726584.751    176872.997
10 0 59573  29622.000000  0   -5623325.181   3829250.737   1077648.520
10 0 59573  29742.000000  0   -5355415.307   3861152.762   1959447.070
10 0 59573  29862.000000  0   -4993941.837   3820032.431   2806736.979
10 0 59573  29982.000000  0   -4546511.622   3705038.431   3604597.640
10 0 59573  30102.000000  0   -4022248.714   3516767.417   4338989.108
10 0 59573  30222.000000  0   -3431602.916   3257274.241   4997001.943
10 0 59573  30342.000000  0   -2786135.620   2930053.675   5567084.902
10 0 59573  30462.000000  0   -2098286.689   2539992.183   6039245.308
10 0 59573  30582.000000  0   -1381129.364   2093291.821   6405219.805
10 0 59573  30702.000000  0    -648117.416   1597367.872   6658611.719
10 0 59573  30822.000000  0      87167.384   1060723.372   6794995.956
10 0 59573  30942.000000  0     811266.597    492801.930   6811991.791
10 0 59573  31062.000000  0    1511090.501    -96178.201   6709301.391
10 0 59573  31182.000000  0    2174153.569   -695407.109   6488715.316
10 0 59573  31302.000000  0    2788796.828  -1293681.117   6154083.843
10 0 59573  31422.000000  0    3344394.502  -1879611.325   5711254.883
10 0 59573  31542.000000  0    3831541.300  -2441840.936   5167977.267
10 0 59573  31662.000000  0    4242215.980  -2969266.031   4533770.895
10 0 59573  31782.000000  0    4569918.970  -3451257.581   3819765.612
10 0 59573  31902.000000  0    4809781.341  -3877879.301   3038509.238
10 0 59573  32022.000000  0    4958642.583  -4240095.920   2203747.059
10 0 59573  32142.000000  0    5015093.201  -4529966.403   1330176.573
10 0 59573  32262.000000  0    4979481.803  -4740818.196    433183.574
10 0 59573  32382.000000  0    4853886.706  -4867398.138   -471436.130
10 0 59573  32502.000000  0    4642052.457  -4905995.059  -1367763.548
10 0 59573  32622.000000  0    4349292.573  -4854530.993  -2240045.706
10 0 59573  32742.000000  0    3982361.118  -4712619.132  -3072979.645
10 0 59573  32862.000000  0    3549296.783  -4481587.209  -3851985.428
10 0 59573  32982.000000  0    3059244.579  -4164466.603  -4563462.551
10 0 59573  33102.000000  0    2522258.944  -3765947.134  -5195025.120
10 0 59573  33222.000000  0    1949093.516  -3292299.969  -5735709.781
10 0 59573  33342.000000  0    1350984.896  -2751272.854  -6176155.576
10 0 59573  33462.000000  0     739432.560  -2151959.196  -6508756.185
10 0 59573  33582.000000  0     125978.918  -1504641.545  -6727780.995
10 0 59573  33702.000000  0    -478004.954   -820614.013  -6829463.169
10 0 59573  33822.000000  0   -1061524.519   -111987.447  -6812056.535
10 0 59573  33942.000000  0   -1614157.144    608520.147  -6675861.791
10 0 59573  34062.000000  0   -2126233.991   1327805.859  -6423221.472
10 0 59573  34182.000000  0   -2589005.258   2032614.262  -6058484.003
10 0 59573  34302.000000  0   -2994788.334   2709776.127  -5587937.568
10 0 59573  34422.000000  0   -3337096.354   3346452.086  -5019713.107
10 0 59573  34542.000000  0   -3610745.783   3930376.415  -4363655.593
10 0 59573  34662.000000  0   -3811939.439   4450096.159  -3631163.117
10 0 59573  34782.000000  0   -3938321.648   4895199.821  -2834996.760
10 0 59573  34902.000000  0   -3989006.220   5256531.501  -1989064.977
10 0 59573  35022.000000  0   -3964576.782   5526386.008  -1108183.751
10 0 59573  35142.000000  0   -3867057.129   5698680.218   -207815.143
10 0 59573  35262.000000  0   -3699851.234   5769092.343    696209.759
10 0 59573  35382.000000  0   -3467656.051   5735167.943   1587976.819
10 0 59573  35502.000000  0   -3176346.506   5596389.294   2451779.555
10 0 59573  35622.000000  0   -2832835.466   5354203.035   3272405.727
10 0 59573  35742.000000  0   -2444914.501   5012007.664   4035411.294
10 0 59573  35862.000000  0   -2021079.418   4575102.993   4727378.606
10 0 59573  35982.000000  0   -1570345.093   4050602.036   5336153.885
10 0 59573  36102.000000  0   -1102053.173   3447307.445   5851059.866
10 0 59573  36222.000000  0    -625678.118   2775555.557   6263078.591
10 0 59573  36342.000000  0    -150636.047   2047032.518   6565003.085
10 0 59573  36462.000000  0     313900.191   1274567.320   6751557.471
10 0 59573  36582.000000  0     759177.507    471902.953   6819483.897
10 0 59573  36702.000000  0    1177026.384   -346547.928   6767594.955
10 0 59573  36822.000000  0    1560009.863  -1165960.868   6596794.274
10 0 59573  36942.000000  0    1901555.878  -1971367.629   6310061.885
10 0 59573  37062.000000  0    2196070.643  -2747929.398   5912406.392
10 0 59573  37182.000000  0    2439031.717  -3481211.984   5410782.813
10 0 59573  37302.000000  0    2627058.507  -4157457.128   4813976.144
10 0 59573  37422.000000  0    2757959.219  -4763845.244   4132453.532
10 0 59573  37542.000000  0    2830754.411  -5288745.478   3378184.524
10 0 59573  37662.000000  0    2845674.756  -5721946.628   2564432.549
10 0 59573  37782.000000  0    2804133.221  -6054864.167   1705520.002
10 0 59573  37902.000000  0    2708671.575  -6280715.765    816571.876
10 0 59573  38022.000000  0    2562884.584  -6394663.817    -86755.544
10 0 59573  38142.000000  0    2371322.047  -6393921.272   -988558.979
10 0 59573  38262.000000  0    2139370.196  -6277814.284  -1872978.653
10 0 59573  38382.000000  0    1873116.432  -6047802.353  -2724484.650
10 0 59573  38502.000000  0    1579200.417  -5707456.014  -3528157.297
10 0 59573  38622.000000  0    1264656.253  -5262389.222  -4269950.293
10 0 59573  38742.000000  0     936752.149  -4720155.091  -4936934.427
10 0 59573  38862.000000  0     602828.729  -4090106.020  -5517517.478
10 0 59573  38982.000000  0     270140.373  -3383222.120  -6001637.590
10 0 59573  39102.000000  0     -54297.005  -2611911.685  -6380926.998
10 0 59573  39222.000000  0    -363848.652  -1789788.881  -6648845.061
10 0 59573  39342.000000  0    -652391.742   -931432.877  -6800780.237
10 0 59573  39462.000000  0    -914431.810    -52131.834  -6834121.492
10 0 59573  39582.000000  0   -1145203.911    832384.374  -6748297.169
10 0 59573  39702.000000  0   -1340757.112   1706218.049  -6544783.309
10 0 59573  39822.000000  0   -1498020.604   2553582.124  -6227080.706
10 0 59573  39942.000000  0   -1614851.392   3359079.382  -5800662.777
10 0 59573  40062.000000  0   -1690062.867   4107980.025  -5272890.905
10 0 59573  40182.000000  0   -1723433.187   4786491.602  -4652899.003
10 0 59573  40302.000000  0   -1715693.993   5382018.205  -3951446.336
10 0 59573  40422.000000  0   -1668498.409   5883401.664  -3180739.431
10 0 59573  40542.000000  0   -1584368.630   6281139.728  -2354226.810
10 0 59573  40662.000000  0   -1466624.917   6567577.976  -1486368.602
10 0 59573  40782.000000  0   -1319296.466   6737068.233   -592383.133
10 0 59573  40902.000000  0   -1147016.561   6786090.095    312022.301
10 0 59573  41022.000000  0    -954903.721   6713332.855   1210934.514
10 0 59573  41142.000000  0    -748432.454   6519731.122   2088525.572
10 0 59573  41262.000000  0    -533296.606   6208452.201   2929340.845
10 0 59573  41382.000000  0    -315269.205   5784840.020   3718577.454
10 0 59573  41502.000000  0    -100063.028   5256317.901   4442349.531
10 0 59573  41622.000000  0     106805.637   4632249.903   5087939.089
10 0 59573  41742.000000  0     300147.842   3923760.698   5644017.225
10 0 59573  41862.000000  0     475222.007   3143530.543   6100838.608
10 0 59573  41982.000000  0     627841.323   2305559.778   6450408.557
10 0 59573  42102.000000  0     754466.611   1424911.915   6686616.457
10 0 59573  42222.000000  0     852283.149    517439.133   6805336.785
10 0 59573  42342.000000  0     919259.957   -400503.403   6804495.787
10 0 59573  42462.000000  0     954190.638  -1312351.157   6684106.646
10 0 59573  42582.000000  0     956715.072  -2201629.056   6446269.781
10 0 59573  42702.000000  0     927321.653  -3052249.326   6095139.195
10 0 59573  42822.000000  0     867329.498  -3848804.926   5636853.336
10 0 59573  42942.000000  0     778851.848  -4576850.214   5079431.852
10 0 59573  43062.000000  0     664741.971  -5223166.843   4432642.150
99
